ONEWEB-0102             
1 47258U 20100A   24255.15943919  .00000313  00000+0  83348-3 0  9993
2 47258  87.8887 118.9583 0001876  81.2939 278.8402 13.12443306180257
ONEWEB-0109             
1 47259U 20100B   24254.63388477  .00000131  00000+0  32751-3 0  9998
2 47259  87.8891 119.0285 0001835  81.9738 278.1599 13.12442486180015
ONEWEB-0110             
1 47260U 20100C   24254.65982862 -.00000352  00000+0 -10131-2 0  9994
2 47260  87.8885 119.0238 0001701  84.3486 275.7836 13.12445044180185
ONEWEB-0111             
1 47261U 20100D   24254.69066273  .00000413  00000+0  11116-2 0  9998
2 47261  87.8888 119.0183 0001765  80.4567 279.6761 13.12444159180024
ONEWEB-0114             
1 47262U 20100E   24254.64525190 -.00000265  00000+0 -77212-3 0  9999
2 47262  87.8883 119.0392 0002069  82.4863 277.6500 13.12441304179971
ONEWEB-0117             
1 47263U 20100F   24254.63713044 -.00000049  00000+0 -17226-3 0  9995
2 47263  87.8888 119.0197 0001677  78.5964 281.5353 13.12441470179987
ONEWEB-0118             
1 47264U 20100G   24255.05075757 -.00000191  00000+0 -56598-3 0  9998
2 47264  87.8887 118.9407 0002015  71.5260 288.6087 13.12443311180236
ONEWEB-0119             
1 47265U 20100H   24254.69715295  .00000438  00000+0  11824-2 0  9990
2 47265  87.8887 119.0499 0001722  81.2015 278.9309 13.12443286180162
